{"type": "FeatureCollection", "features": [ {"type": "Feature", "properties": {"norad_id": 34001, "name": "COSMOS 2251 DEB", "group": "cosmos-2251-debris", "lat": -21.63851891037378, "lon": -109.06169060521535, "alt_km": 758.383195301325, "timestamp": "2025-12-25T20:42:39.081040+00:00", "meta": {"OBJECT_NAME": "COSMOS 2251 DEB", "OBJECT_ID": "1993-036GL", "EPOCH": "2025-12-25T04:41:21.208704", "MEAN_MOTION": 14.37112296, "ECCENTRICITY": 0.00204696, "INCLINATION": 74.0385, "RA_OF_ASC_NODE": 258.6847, "ARG_OF_PERICENTER": 337.2182, "MEAN_ANOMALY": 147.9887, "EPHEMERIS_TYPE": 0, "CLASSIFICATION_TYPE": "U", "NORAD_CAT_ID": 34001, "ELEMENT_SET_NO": 999, "REV_AT_EPOCH": 88325, "BSTAR": 0.00017137195, "MEAN_MOTION_DOT": 4.84e-06, "MEAN_MOTION_DDOT": 0}, "tle": {"line1": "1 34001U 93036GL  25359.19538436  .00000484  00000+0  17137-3 0  9999", "line2": "2 34001  74.0385 258.6847 0020469 337.2182 147.9887 14.37112296883250"}}, "geometry": {"type": "Point", "coordinates": [-109.06169060521535, -21.63851891037378]}}, {"type": "Feature", "properties": {"norad_id": 34003, "name": "COSMOS 2251 DEB", "group": "cosmos-2251-debris", "lat": -60.173692450083365, "lon": 112.91808073451199, "alt_km": 1075.6186759746079, "timestamp": "2025-12-25T20:42:39.081050+00:00", "meta": {"OBJECT_NAME": "COSMOS 2251 DEB", "OBJECT_ID": "1993-036GN", "EPOCH": "2025-12-24T19:14:32.465760", "MEAN_MOTION": 13.84214835, "ECCENTRICITY": 0.02753294, "INCLINATION": 74.0775, "RA_OF_ASC_NODE": 264.8421, "ARG_OF_PERICENTER": 14.14, "MEAN_ANOMALY": 346.7234, "EPHEMERIS_TYPE": 0, "CLASSIFICATION_TYPE": "U", "NORAD_CAT_ID": 34003, "ELEMENT_SET_NO": 999, "REV_AT_EPOCH": 84592, "BSTAR": 0.0018055995, "MEAN_MOTION_DOT": 2.68e-05, "MEAN_MOTION_DDOT": 0}, "tle": {"line1": "1 34003U 93036GN  25358.80176465  .00002680  00000+0  18056-2 0  9998", "line2": "2 34003  74.0775 264.8421 0275329  14.1400 346.7234 13.84214835845923"}}, "geometry": {"type": "Point", "coordinates": [112.91808073451199, -60.173692450083365]}}, {"type": "Feature", "properties": {"norad_id": 34004, "name": "COSMOS 2251 DEB", "group": "cosmos-2251-debris", "lat": 63.29305227989123, "lon": -36.81883659452125, "alt_km": 737.0094476736213, "timestamp": "2025-12-25T20:42:39.081060+00:00", "meta": {"OBJECT_NAME": "COSMOS 2251 DEB", "OBJECT_ID": "1993-036GP", "EPOCH": "2025-12-24T21:12:02.718720", "MEAN_MOTION": 14.49115551, "ECCENTRICITY": 0.0033424, "INCLINATION": 74.0358, "RA_OF_ASC_NODE": 290.3378, "ARG_OF_PERICENTER": 301.043, "MEAN_ANOMALY": 58.7449, "EPHEMERIS_TYPE": 0, "CLASSIFICATION_TYPE": "U", "NORAD_CAT_ID": 34004, "ELEMENT_SET_NO": 999, "REV_AT_EPOCH": 88206, "BSTAR": 0.0012662, "MEAN_MOTION_DOT": 4.823e-05, "MEAN_MOTION_DDOT": 0}, "tle": {"line1": "1 34004U 93036GP  25358.88336480  .00004823  00000+0  12662-2 0  9990", "line2": "2 34004  74.0358 290.3378 0033424 301.0430  58.7449 14.49115551882066"}}, "geometry": {"type": "Point", "coordinates": [-36.81883659452125, 63.29305227989123]}}, {"type": "Feature", "properties": {"norad_id": 34005, "name": "COSMOS 2251 DEB", "group": "cosmos-2251-debris", "lat": -65.97292636653778, "lon": 149.47460052563864, "alt_km": 749.8781612788225, "timestamp": "2025-12-25T20:42:39.081071+00:00", "meta": {"OBJECT_NAME": "COSMOS 2251 DEB", "OBJECT_ID": "1993-036GQ", "EPOCH": "2025-12-24T23:56:48.964416", "MEAN_MOTION": 14.40312708, "ECCENTRICITY": 0.00212072, "INCLINATION": 74.0432, "RA_OF_ASC_NODE": 190.9995, "ARG_OF_PERICENTER": 307.1606, "MEAN_ANOMALY": 176.9752, "EPHEMERIS_TYPE": 0, "CLASSIFICATION_TYPE": "U", "NORAD_CAT_ID": 34005, "ELEMENT_SET_NO": 999, "REV_AT_EPOCH": 88555, "BSTAR": 0.0001048168, "MEAN_MOTION_DOT": 3.06e-06, "MEAN_MOTION_DDOT": 0}, "tle": {"line1": "1 34005U 93036GQ  25358.99778894  .00000306  00000+0  10482-3 0  9993", "line2": "2 34005  74.0432 190.9995 0021207 307.1606 176.9752 14.40312708885559"}}, "geometry": {"type": "Point", "coordinates": [149.47460052563864, -65.97292636653778]}}, {"type": "Feature", "properties": {"norad_id": 34006, "name": "COSMOS 2251 DEB", "group": "cosmos-2251-debris", "lat": -72.86342698769091, "lon": 4.864833759013156, "alt_km": 593.8774320982557, "timestamp": "2025-12-25T20:42:39.081081+00:00", "meta": {"OBJECT_NAME": "COSMOS 2251 DEB", "OBJECT_ID": "1993-036GR", "EPOCH": "2025-12-24T18:25:22.382688", "MEAN_MOTION": 14.95558807, "ECCENTRICITY": 0.00116588, "INCLINATION": 74.0534, "RA_OF_ASC_NODE": 119.05, "ARG_OF_PERICENTER": 50.1684, "MEAN_ANOMALY": 78.6177, "EPHEMERIS_TYPE": 0, "CLASSIFICATION_TYPE": "U", "NORAD_CAT_ID": 34006, "ELEMENT_SET_NO": 999, "REV_AT_EPOCH": 88848, "BSTAR": 0.003601603, "MEAN_MOTION_DOT": 0.00040203, "MEAN_MOTION_DDOT": 0}, "tle": {"line1": "1 34006U 93036GR  25358.76762017  .00040203  00000+0  36016-2 0  9999", "line2": "2 34006  74.0534 119.0500 0011658  50.1684  78.6177 14.95558807888483"}}, "geometry": {"type": "Point", "coordinates": [4.864833759013156, -72.86342698769091]}}, {"type": "Feature", "properties": {"norad_id": 34007, "name": "COSMOS 2251 DEB", "group": "cosmos-2251-debris", "lat": -27.831604751380556, "lon": 150.3348092129984, "alt_km": 696.7887810267639, "timestamp": "2025-12-25T20:42:39.081091+00:00", "meta": {"OBJECT_NAME": "COSMOS 2251 DEB", "OBJECT_ID": "1993-036GS", "EPOCH": "2025-12-24T22:27:24.824736", "MEAN_MOTION": 14.64870558, "ECCENTRICITY": 0.004426, "INCLINATION": 74.0198, "RA_OF_ASC_NODE": 323.4174, "ARG_OF_PERICENTER": 94.3833, "MEAN_ANOMALY": 266.2395, "EPHEMERIS_TYPE": 0, "CLASSIFICATION_TYPE": "U", "NORAD_CAT_ID": 34007, "ELEMENT_SET_NO": 999, "REV_AT_EPOCH": 89258, "BSTAR": 0.00080406, "MEAN_MOTION_DOT": 4.33e-05, "MEAN_MOTION_DDOT": 0}, "tle": {"line1": "1 34007U 93036GS  25358.93570399  .00004330  00000+0  80406-3 0  9993", "line2": "2 34007  74.0198 323.4174 0044260  94.3833 266.2395 14.64870558892588"}}, "geometry": {"type": "Point", "coordinates": [150.3348092129984, -27.831604751380556]}}, {"type": "Feature", "properties": {"norad_id": 34008, "name": "COSMOS 2251 DEB", "group": "cosmos-2251-debris", "lat": -35.44486793657295, "lon": 138.29299371149264, "alt_km": 784.8071334163114, "timestamp": "2025-12-25T20:42:39.081101+00:00", "meta": {"OBJECT_NAME": "COSMOS 2251 DEB", "OBJECT_ID": "1993-036GT", "EPOCH": "2025-12-25T02:59:57.946272", "MEAN_MOTION": 14.33154543, "ECCENTRICITY": 0.00246512, "INCLINATION": 74.0349, "RA_OF_ASC_NODE": 307.883, "ARG_OF_PERICENTER": 301.1452, "MEAN_ANOMALY": 70.1826, "EPHEMERIS_TYPE": 0, "CLASSIFICATION_TYPE": "U", "NORAD_CAT_ID": 34008, "ELEMENT_SET_NO": 999, "REV_AT_EPOCH": 88142, "BSTAR": 0.0001280104, "MEAN_MOTION_DOT": 3.26e-06, "MEAN_MOTION_DDOT": 0}, "tle": {"line1": "1 34008U 93036GT  25359.12497623  .00000326  00000+0  12801-3 0  9999", "line2": "2 34008  74.0349 307.8830 0024651 301.1452  70.1826 14.33154543881427"}}, "geometry": {"type": "Point", "coordinates": [138.29299371149264, -35.44486793657295]}}, {"type": "Feature", "properties": {"norad_id": 34009, "name": "COSMOS 2251 DEB", "group": "cosmos-2251-debris", "lat": -69.27464633742619, "lon": -177.89406770369587, "alt_km": 798.1526244432689, "timestamp": "2025-12-25T20:42:39.081110+00:00", "meta": {"OBJECT_NAME": "COSMOS 2251 DEB", "OBJECT_ID": "1993-036GU", "EPOCH": "2025-12-24T23:43:44.531040", "MEAN_MOTION": 14.33231989, "ECCENTRICITY": 0.0026987, "INCLINATION": 74.0377, "RA_OF_ASC_NODE": 314.5514, "ARG_OF_PERICENTER": 20.6885, "MEAN_ANOMALY": 47.1968, "EPHEMERIS_TYPE": 0, "CLASSIFICATION_TYPE": "U", "NORAD_CAT_ID": 34009, "ELEMENT_SET_NO": 999, "REV_AT_EPOCH": 88121, "BSTAR": 0.00015716655, "MEAN_MOTION_DOT": 4.08e-06, "MEAN_MOTION_DDOT": 0}, "tle": {"line1": "1 34009U 93036GU  25358.98870985  .00000408  00000+0  15717-3 0  9999", "line2": "2 34009  74.0377 314.5514 0026987  20.6885  47.1968 14.33231989881218"}}, "geometry": {"type": "Point", "coordinates": [-177.89406770369587, -69.27464633742619]}}, {"type": "Feature", "properties": {"norad_id": 34010, "name": "COSMOS 2251 DEB", "group": "cosmos-2251-debris", "lat": -67.33641681014616, "lon": 119.16860987115824, "alt_km": 513.3485305273225, "timestamp": "2025-12-25T20:42:39.081120+00:00", "meta": {"OBJECT_NAME": "COSMOS 2251 DEB", "OBJECT_ID": "1993-036GV", "EPOCH": "2025-12-25T03:48:40.196448", "MEAN_MOTION": 15.20766329, "ECCENTRICITY": 0.00050137, "INCLINATION": 73.9967, "RA_OF_ASC_NODE": 257.2293, "ARG_OF_PERICENTER": 58.1963, "MEAN_ANOMALY": 301.9722, "EPHEMERIS_TYPE": 0, "CLASSIFICATION_TYPE": "U", "NORAD_CAT_ID": 34010, "ELEMENT_SET_NO": 999, "REV_AT_EPOCH": 89474, "BSTAR": 0.0039606427, "MEAN_MOTION_DOT": 0.00088322, "MEAN_MOTION_DDOT": 0}, "tle": {"line1": "1 34010U 93036GV  25359.15879857  .00088322  00000+0  39606-2 0  9991", "line2": "2 34010  73.9967 257.2293 0005013  58.1963 301.9722 15.20766329894749"}}, "geometry": {"type": "Point", "coordinates": [119.16860987115824, -67.33641681014616]}}, {"type": "Feature", "properties": {"norad_id": 34011, "name": "COSMOS 2251 DEB", "group": "cosmos-2251-debris", "lat": -50.76811666077477, "lon": -74.75556877833515, "alt_km": 754.1856550364482, "timestamp": "2025-12-25T20:42:39.081130+00:00", "meta": {"OBJECT_NAME": "COSMOS 2251 DEB", "OBJECT_ID": "1993-036GW", "EPOCH": "2025-12-24T06:39:29.454336", "MEAN_MOTION": 14.4182197, "ECCENTRICITY": 0.00362711, "INCLINATION": 74.0149, "RA_OF_ASC_NODE": 308.7381, "ARG_OF_PERICENTER": 29.1397, "MEAN_ANOMALY": 331.1772, "EPHEMERIS_TYPE": 0, "CLASSIFICATION_TYPE": "U", "NORAD_CAT_ID": 34011, "ELEMENT_SET_NO": 999, "REV_AT_EPOCH": 88082, "BSTAR": 0.00081101718, "MEAN_MOTION_DOT": 2.646e-05, "MEAN_MOTION_DDOT": 0}, "tle": {"line1": "1 34011U 93036GW  25358.27742424  .00002646  00000+0  81102-3 0  9997", "line2": "2 34011  74.0149 308.7381 0036271  29.1397 331.1772 14.41821970880823"}}, "geometry": {"type": "Point", "coordinates": [-74.75556877833515, -50.76811666077477]}}]}